NORAD_CAT_ID,OBJECT_NAME,OBJECT_TYPE,EPOCH,MEAN_MOTION,ECCENTRICITY,INCLINATION,RA_OF_ASC_NODE,ARG_OF_PERICENTER,MEAN_ANOMALY,BSTAR,MEAN_MOTION_DOT,MEAN_MOTION_DDOT,TLE_LINE0,TLE_LINE1,TLE_LINE2,SEMIMAJOR_AXIS,PERIOD,APOGEE,PERIGEE,DECAYED
50181.0,STARLINK-3285,PAYLOAD,2023-05-02 07:36:11,15.08833149,8.48e-05,53.2165,248.517,58.632,301.4755,6.8921e-05,8.09e-06,0.0,0 STARLINK-3285,1 50181U 21125AB  23122.31680263  .00000809  00000-0  68921-4 0  9992,2 50181  53.2165 248.5170 0000848  58.6320 301.4755 15.08833149 79249,6917.901,95.438,540.353,539.18,0.0
50181.0,STARLINK-3285,PAYLOAD,2023-05-02 18:43:52,15.08846358,8e-05,53.2177,246.4417,82.9937,277.1146,0.00017146,2.443e-05,0.0,0 STARLINK-3285,1 50181U 21125AB  23122.78047107  .00002443  00000-0  17146-3 0  9995,2 50181  53.2177 246.4417 0000800  82.9937 277.1146 15.08846358 78827,6917.861,95.437,540.279,539.173,0.0
50181.0,STARLINK-3285,PAYLOAD,2023-05-03 01:05:26,15.08832525,7.58e-05,53.2175,245.2537,105.4846,254.623,1.4282e-05,-6e-07,0.0,0 STARLINK-3285,1 50181U 21125AB  23123.04544466 -.00000060  00000-0  14282-4 0  9998,2 50181  53.2175 245.2537 0000758 105.4846 254.6230 15.08832525 78866,6917.903,95.438,540.293,539.244,0.0
50181.0,STARLINK-3285,PAYLOAD,2023-05-03 13:48:31,15.08836364,7.71e-05,53.2167,242.8741,97.8979,262.21,5.133e-05,5.29e-06,0.0,0 STARLINK-3285,1 50181U 21125AB  23123.57536372  .00000529  00000-0  51330-4 0  9997,2 50181  53.2167 242.8741 0000771  97.8979 262.2100 15.08836364 79433,6917.892,95.438,540.29,539.223,0.0
50181.0,STARLINK-3285,PAYLOAD,2023-05-03 16:59:17,15.08840337,7.61e-05,53.2164,242.2789,86.9824,273.1255,9.301e-05,1.193e-05,0.0,0 STARLINK-3285,1 50181U 21125AB  23123.70784117  .00001193  00000-0  93010-4 0  9993,2 50181  53.2164 242.2789 0000761  86.9824 273.1255 15.08840337 78967,6917.879,95.438,540.271,539.218,0.0
50181.0,STARLINK-3285,PAYLOAD,2023-05-03 20:10:03,15.08844227,8.48e-05,53.2167,241.6833,91.5179,268.591,0.00013065,1.792e-05,0.0,0 STARLINK-3285,1 50181U 21125AB  23123.84031795  .00001792  00000-0  13065-3 0  9991,2 50181  53.2167 241.6833 0000848  91.5179 268.5910 15.08844227 79479,6917.867,95.437,540.319,539.146,0.0
50181.0,STARLINK-3285,PAYLOAD,2023-05-04 13:39:18,15.08843314,9.99e-05,53.2171,238.4132,89.9106,270.2,8.5072e-05,1.067e-05,0.0,0 STARLINK-3285,1 50181U 21125AB  23124.56896004  .00001067  00000-0  85072-4 0  9996,2 50181  53.2171 238.4132 0000999  89.9106 270.2000 15.08843314 79586,6917.87,95.437,540.426,539.044,0.0
50181.0,STARLINK-3285,PAYLOAD,2023-05-04 20:00:50,15.08850388,8.01e-05,53.2156,237.2219,79.3334,280.7748,0.00012431,1.692e-05,0.0,0 STARLINK-3285,1 50181U 21125AB  23124.83391361  .00001692  00000-0  12431-3 0  9994,2 50181  53.2156 237.2219 0000801  79.3334 280.7748 15.08850388 79629,6917.849,95.437,540.268,539.16,0.0
50181.0,STARLINK-3285,PAYLOAD,2023-05-05 00:47:00,15.08840837,9.23e-05,53.2155,236.3306,80.994,279.1157,-2.3434e-05,-6.61e-06,0.0,0 STARLINK-3285,1 50181U 21125AB  23125.03263943 -.00000661  00000-0 -23434-4 0  9994,2 50181  53.2155 236.3306 0000923  80.9940 279.1157 15.08840837 79164,6917.878,95.438,540.381,539.104,0.0
50181.0,STARLINK-3285,PAYLOAD,2023-05-05 16:40:51,15.08844417,8.65e-05,53.216,233.3573,83.1993,276.9097,0.00011115,1.482e-05,0.0,0 STARLINK-3285,1 50181U 21125AB  23125.69503926  .00001482  00000-0  11115-3 0  9996,2 50181  53.2160 233.3573 0000865  83.1993 276.9097 15.08844417 79752,6917.867,95.437,540.33,539.133,0.0
50181.0,STARLINK-3285,PAYLOAD,2023-05-06 06:59:20,15.08839477,9.28e-05,53.2157,230.6808,80.7177,279.392,0.00013919,1.928e-05,0.0,0 STARLINK-3285,1 50181U 21125AB  23126.29120445  .00001928  00000-0  13919-3 0  9993,2 50181  53.2157 230.6808 0000928  80.7177 279.3920 15.08839477 79354,6917.882,95.438,540.389,539.105,0.0
50181.0,STARLINK-3285,PAYLOAD,2023-05-06 13:20:52,15.08851451,8.69e-05,53.2154,229.4927,77.1727,282.9362,0.00016867,2.398e-05,0.0,0 STARLINK-3285,1 50181U 21125AB  23126.55615859  .00002398  00000-0  16867-3 0  9997,2 50181  53.2154 229.4927 0000869  77.1727 282.9362 15.08851451 79888,6917.845,95.437,540.312,539.109,0.0
50181.0,STARLINK-3285,PAYLOAD,2023-05-07 13:11:39,15.08842601,8.56e-05,53.2148,225.0333,75.7034,284.4053,0.00012435,1.692e-05,0.0,0 STARLINK-3285,1 50181U 21125AB  23127.54976253  .00001692  00000-0  12435-3 0  9998,2 50181  53.2148 225.0333 0000856  75.7034 284.4053 15.08842601 79549,6917.872,95.437,540.33,539.145,0.0
50181.0,STARLINK-3285,PAYLOAD,2023-05-08 16:13:12,15.08850381,9.63e-05,53.2155,219.9759,91.3828,268.7274,0.00014357,1.999e-05,0.0,0 STARLINK-3285,1 50181U 21125AB  23128.67583780  .00001999  00000-0  14357-3 0  9997,2 50181  53.2155 219.9759 0000963  91.3828 268.7274 15.08850381 80204,6917.849,95.437,540.38,539.047,0.0
50181.0,STARLINK-3285,PAYLOAD,2023-05-09 12:53:13,15.08841776,0.0001033,53.2157,216.1117,84.1969,275.9141,0.00012181,1.651e-05,0.0,0 STARLINK-3285,1 50181U 21125AB  23129.53696347  .00001651  00000-0  12181-3 0  9995,2 50181  53.2157 216.1117 0001033  84.1969 275.9141 15.08841776 80333,6917.875,95.437,540.455,539.025,0.0
50181.0,STARLINK-3285,PAYLOAD,2023-05-10 11:08:37,15.0883509,0.0001215,53.2172,211.9502,95.9357,264.1774,-4.0347e-05,-9.3e-06,0.0,0 STARLINK-3285,1 50181U 21125AB  23130.46432858 -.00000930  00000-0 -40347-4 0  9991,2 50181  53.2172 211.9502 0001215  95.9357 264.1774 15.08835090 80473,6917.895,95.438,540.601,538.92,0.0
50181.0,STARLINK-3285,PAYLOAD,2023-05-10 15:54:47,15.0884347,0.0001129,53.2162,211.0561,80.3823,279.7297,8.5834e-05,1.079e-05,0.0,0 STARLINK-3285,1 50181U 21125AB  23130.66304465  .00001079  00000-0  85834-4 0  9998,2 50181  53.2162 211.0561 0001129  80.3823 279.7297 15.08843470 80011,6917.87,95.437,540.516,538.954,0.0
50181.0,STARLINK-3285,PAYLOAD,2023-05-11 10:59:24,15.0884428,9.36e-05,53.215,207.4872,86.9079,273.202,8.6324e-05,1.087e-05,0.0,0 STARLINK-3285,1 50181U 21125AB  23131.45792673  .00001087  00000-0  86324-4 0  9992,2 50181  53.2150 207.4872 0000936  86.9079 273.2020 15.08844280 80622,6917.867,95.437,540.38,539.085,0.0
50181.0,STARLINK-3285,PAYLOAD,2023-05-11 22:07:06,15.08844093,9.91e-05,53.2152,205.4073,85.8495,274.2611,0.00019808,2.866e-05,0.0,0 STARLINK-3285,1 50181U 21125AB  23131.92160747  .00002866  00000-0  19808-3 0  9993,2 50181  53.2152 205.4073 0000991  85.8495 274.2611 15.08844093 80692,6917.868,95.437,540.418,539.047,0.0
50181.0,STARLINK-3285,PAYLOAD,2023-05-11 23:42:30,15.08844179,9.86e-05,53.2152,205.1099,83.8592,276.2512,0.00020655,3.001e-05,0.0,0 STARLINK-3285,1 50181U 21125AB  23131.98784736  .00003001  00000-0  20655-3 0  9993,2 50181  53.2152 205.1099 0000986  83.8592 276.2512 15.08844179 80212,6917.868,95.437,540.415,539.051,0.0
50181.0,STARLINK-3285,PAYLOAD,2023-05-13 10:40:58,15.0885307,0.0001365,53.2155,198.5676,138.9991,221.1104,0.00030885,4.633e-05,0.0,0 STARLINK-3285,1 50181U 21125AB  23133.44512241  .00004633  00000-0  30885-3 0  9994,2 50181  53.2155 198.5676 0001365 138.9991 221.1104 15.08853070 80438,6917.84,95.437,540.65,538.761,0.0
50181.0,STARLINK-3285,PAYLOAD,2023-05-13 21:48:40,15.08841656,0.0001016,53.2163,196.4822,94.3831,265.7277,5.7029e-05,6.2e-06,0.0,0 STARLINK-3285,1 50181U 21125AB  23133.90880551  .00000620  00000-0  57029-4 0  9999,2 50181  53.2163 196.4822 0001016  94.3831 265.7277 15.08841656 80508,6917.875,95.437,540.443,539.037,0.0
50181.0,STARLINK-3285,PAYLOAD,2023-05-14 10:31:46,15.08838046,0.000111,53.2164,194.1032,119.0558,241.0545,8.0321e-05,9.91e-06,0.0,0 STARLINK-3285,1 50181U 21125AB  23134.43872928  .00000991  00000-0  80321-4 0  9999,2 50181  53.2164 194.1032 0001110 119.0558 241.0545 15.08838046 81070,6917.886,95.438,540.519,538.983,0.0
50181.0,STARLINK-3285,PAYLOAD,2023-05-14 23:14:51,15.08838222,0.0001145,53.2154,191.7261,94.2419,265.8704,9.3424e-05,1.199e-05,0.0,0 STARLINK-3285,1 50181U 21125AB  23134.96865198  .00001199  00000-0  93424-4 0  9997,2 50181  53.2154 191.7261 0001145  94.2419 265.8704 15.08838222 80665,6917.886,95.438,540.543,538.959,0.0
50181.0,STARLINK-3285,PAYLOAD,2023-05-15 07:11:48,15.08803286,0.0001356,53.2153,190.2391,105.0816,255.0326,0.0010961,0.00017182,0.0,0 STARLINK-3285,1 50181U 21125AB  23135.29986740  .00017182  00000-0  10961-2 0  9993,2 50181  53.2153 190.2391 0001356 105.0816 255.0326 15.08803286 80717,6917.993,95.44,540.796,538.92,0.0
50181.0,STARLINK-3285,PAYLOAD,2023-05-15 10:22:33,15.08841025,0.0001167,53.2156,189.6464,84.7392,275.3734,0.00011987,1.62e-05,0.0,0 STARLINK-3285,1 50181U 21125AB  23135.43233167  .00001620  00000-0  11987-3 0  9997,2 50181  53.2156 189.6464 0001167  84.7392 275.3734 15.08841025 80738,6917.877,95.437,540.55,538.935,0.0
50181.0,STARLINK-3285,PAYLOAD,2023-05-16 07:02:34,15.08834786,0.000109,53.216,185.7807,83.897,276.2146,0.00011598,1.558e-05,0.0,0 STARLINK-3285,1 50181U 21125AB  23136.29345631  .00001558  00000-0  11598-3 0  9990,2 50181  53.2160 185.7807 0001090  83.8970 276.2146 15.08834786 80865,6917.896,95.438,540.515,539.007,0.0
50181.0,STARLINK-3285,PAYLOAD,2023-05-16 08:37:57,15.08835324,0.0001091,53.216,185.4834,83.6483,276.4634,0.00012043,1.629e-05,0.0,0 STARLINK-3285,1 50181U 21125AB  23136.35969610  .00001629  00000-0  12043-3 0  9991,2 50181  53.2160 185.4834 0001091  83.6483 276.4634 15.08835324 81369,6917.895,95.438,540.514,539.005,0.0
50181.0,STARLINK-3285,PAYLOAD,2023-05-17 08:28:44,15.08838674,0.0001121,53.2165,181.0244,83.6772,276.4348,7.6044e-05,9.23e-06,0.0,0 STARLINK-3285,1 50181U 21125AB  23137.35329556  .00000923  00000-0  76044-4 0  9999,2 50181  53.2165 181.0244 0001121  83.6772 276.4348 15.08838674 81022,6917.884,95.438,540.525,538.974,0.0
50181.0,STARLINK-3285,PAYLOAD,2023-05-17 11:39:30,15.08841241,0.0001118,53.2164,180.4294,82.5869,277.525,8.0802e-05,9.98e-06,0.0,0 STARLINK-3285,1 50181U 21125AB  23137.48577367  .00000998  00000-0  80802-4 0  9997,2 50181  53.2164 180.4294 0001118  82.5869 277.5250 15.08841241 81534,6917.877,95.437,540.515,538.968,0.0
